{"spkid": "54306602", "covariance": {"epoch": "2459427.5", "elements": [{"units": null, "title": "eccentricity", "value": ".8328404805769776", "sigma": 7.12968920912667e-07, "name": "e", "label": "e"}, {"label": "q", "title": "perihelion distance", "value": ".1679661497404944", "units": "au", "sigma": 7.13906086148179e-07, "name": "q"}, {"name": "tp", "sigma": 4.88547904716576e-05, "units": "TDB", "value": "2459406.631316603909", "title": "time of perihelion passage", "label": "tp"}, {"label": "node", "title": "longitude of the ascending node", "value": "58.58653156894582", "units": "deg", "name": "om", "sigma": 0.000724647298846998}, {"label": "peri", "name": "w", "sigma": 0.000721062377609812, "units": "deg", "value": "137.8669572486141", "title": "argument of perihelion"}, {"units": "deg", "title": "inclination", "value": "6.206446746803514", "name": "i", "sigma": 3.93857268906628e-05, "label": "i"}], "data": [["5.083246821873723E-13", "-5.08990754113399E-13", "1.761622927564945E-11", "4.566459692238832E-11", "-8.646826384737916E-11", "2.114605896669253E-12"], ["-5.08990754113399E-13", "5.096618998394109E-13", "-1.770319740211256E-11", "-4.596393668246721E-11", "8.680016541186023E-11", "-2.095495628630878E-12"], ["1.761622927564945E-11", "-1.770319740211256E-11", "2.386790552029569E-9", "1.643238678319866E-8", "-1.718075122238296E-8", "-9.455255549081018E-10"], ["4.566459692238832E-11", "-4.596393668246721E-11", "1.643238678319866E-8", "5.251137077262507E-7", "-5.207481601882489E-7", "-2.773752955316224E-8"], ["-8.646826384737916E-11", "8.680016541186023E-11", "-1.718075122238296E-8", "-5.207481601882489E-7", "5.199309524043148E-7", "2.706550268572909E-8"], ["2.114605896669253E-12", "-2.095495628630878E-12", "-9.455255549081018E-10", "-2.773752955316224E-8", "2.706550268572909E-8", "1.551235482705877E-9"]], "labels": ["e", "q", "tp", "node", "peri", "i"]}, "elements": [{"label": "e", "units": null, "title": "eccentricity", "value": ".8328847268976023", "name": "e", "sigma": "7.1284E-7"}, {"value": "1.004529410609948", "title": "semi-major axis", "units": "au", "name": "a", "sigma": "2.0035E-8", "label": "a"}, {"sigma": "7.1349E-7", "name": "q", "value": ".1678722067934721", "title": "perihelion distance", "units": "au", "label": "q"}, {"name": "i", "sigma": "3.9583E-5", "units": "deg", "title": "inclination; angle with respect to x-y ecliptic plane", "value": "6.216466899160441", "label": "i"}, {"label": "node", "title": "longitude of the ascending node", "value": "58.38144855609825", "units": "deg", "sigma": ".00072172", "name": "om"}, {"label": "peri", "name": "w", "sigma": ".00071821", "title": "argument of perihelion", "value": "138.0667844076383", "units": "deg"}, {"label": "M", "units": "deg", "title": "mean anomaly", "value": "315.7748007101569", "name": "ma", "sigma": "6.9992E-5"}, {"units": "TDB", "title": "time of perihelion passage", "value": "2461245.676201263066", "sigma": "7.248E-5", "name": "tp", "label": "tp"}, {"title": "sidereal orbital period", "value": "367.7413039592296", "units": "d", "name": "per", "sigma": "1.1002E-5", "label": "period"}, {"label": "n", "value": ".9789490495740238", "title": "mean motion", "units": "deg/d", "name": "n", "sigma": "2.9287E-8"}, {"label": "Q", "sigma": "3.6721E-8", "name": "ad", "value": "1.841186614426425", "title": "aphelion distance", "units": "au"}], "epoch": "2461200.5"}